LEMUR-2-DEMBITZ         
1 42842U 17042T   26068.47492167  .00020231  00000+0  76561-3 0  9991
2 42842  97.3807 250.9241 0006961  17.1421 343.0051 15.26947128473114
STARLINK-31464          
1 59318U 24056Y   26066.77561499  .00001482  00000+0  63377-4 0  9995
2 59318  42.9986 241.3384 0001422 289.0593  71.0104 15.27583803110867
